SL-3 R/B                
1 13154U 82039B   25320.78572547  .00004143  00000+0  25538-3 0  9990
2 13154  81.1780 345.9440 0031870 338.0255  21.9601 15.09321954364602
SL-3 R/B                
1 13403U 82079B   25320.80131756  .00007771  00000+0  32451-3 0  9999
2 13403  81.1461 326.2311 0025511 184.2570 175.8450 15.23200727360506
SL-14 R/B               
1 13553U 82092B   25320.75784876  .00001120  00000+0  12350-3 0  9999
2 13553  82.5683 247.0079 0019379 319.8041  61.3293 14.86515546312156
SL-3 R/B                
1 13819U 83010B   25320.76700301  .00019002  00000+0  43403-3 0  9998
2 13819  81.1022 140.2995 0018273  79.7115 280.6187 15.42547444340514
SL-3 R/B                
1 14208U 83075B   25320.78992907  .00016120  00000+0  46707-3 0  9997
2 14208  97.6100 316.4178 0020966 273.7662  86.1184 15.35427679312818
COSMOS 1536             
1 14699U 84013A   25320.71091713  .00010713  00000+0  46495-3 0  9998
2 14699  82.5475 219.9657 0014201 327.1713  32.8639 15.22116609255425
SL-14 R/B               
1 14820U 84027B   25320.56112887  .00000878  00000+0  97887-4 0  9991
2 14820  82.5423 351.1078 0017720 353.3579   6.7400 14.85835967230837
SL-8 R/B                
1 15483U 85006B   25320.71766051  .00000525  00000+0  18292-3 0  9991
2 15483  74.0440 109.0091 0017699  49.4338 322.0125 14.37698422137793
SL-12 R/B(2)            
1 15772U 85042D   25320.44474493  .00000320  00000+0  16542-3 0  9997
2 15772  71.1081 326.9726 0037403 299.9534 166.2381 14.21940030 98294
SL-14 R/B               
1 15945U 85069B   25320.44552676  .00001081  00000+0  11982-3 0  9996
2 15945  82.5244 131.4235 0018155 203.5323 156.5065 14.86279606156018
SL-16 R/B               
1 16182U 85097B   25320.60160736  .00000233  00000+0  14070-3 0  9990
2 16182  71.0045  18.6319 0005417  60.0538 101.6984 14.16577313 71212
SL-14 R/B               
1 16496U 86006B   25320.58463734  .00001220  00000+0  12803-3 0  9999
2 16496  82.5285   6.1607 0075278 287.9987  71.3035 14.86620852132408
