CCSDS_OMM_VERS = 2.0
CREATION_DATE  = 
ORIGINATOR     = 

OBJECT_NAME    = SL-3 R/B
OBJECT_ID      = 1982-039B
CENTER_NAME    = EARTH
REF_FRAME      = TEME
TIME_SYSTEM    = UTC
MEAN_ELEMENT_THEORY = SGP/SGP4

EPOCH          = 2025-11-16T18:51:26.680608
MEAN_MOTION    = 15.09321954
ECCENTRICITY   = .003187
INCLINATION    = 81.1780
RA_OF_ASC_NODE = 345.9440
ARG_OF_PERICENTER = 338.0255
MEAN_ANOMALY   = 21.9601

EPHEMERIS_TYPE = 0
CLASSIFICATION_TYPE = U
NORAD_CAT_ID   = 13154
ELEMENT_SET_NO = 999
REV_AT_EPOCH   = 36460
BSTAR          = .25538E-3
MEAN_MOTION_DOT = .4143E-4
MEAN_MOTION_DDOT = 0

CCSDS_OMM_VERS = 2.0
CREATION_DATE  = 
ORIGINATOR     = 

OBJECT_NAME    = SL-3 R/B
OBJECT_ID      = 1982-079B
CENTER_NAME    = EARTH
REF_FRAME      = TEME
TIME_SYSTEM    = UTC
MEAN_ELEMENT_THEORY = SGP/SGP4

EPOCH          = 2025-11-16T19:13:53.837184
MEAN_MOTION    = 15.23200727
ECCENTRICITY   = .0025511
INCLINATION    = 81.1461
RA_OF_ASC_NODE = 326.2311
ARG_OF_PERICENTER = 184.2570
MEAN_ANOMALY   = 175.8450

EPHEMERIS_TYPE = 0
CLASSIFICATION_TYPE = U
NORAD_CAT_ID   = 13403
ELEMENT_SET_NO = 999
REV_AT_EPOCH   = 36050
BSTAR          = .32451E-3
MEAN_MOTION_DOT = .7771E-4
MEAN_MOTION_DDOT = 0

CCSDS_OMM_VERS = 2.0
CREATION_DATE  = 
ORIGINATOR     = 

OBJECT_NAME    = SL-14 R/B
OBJECT_ID      = 1982-092B
CENTER_NAME    = EARTH
REF_FRAME      = TEME
TIME_SYSTEM    = UTC
MEAN_ELEMENT_THEORY = SGP/SGP4

EPOCH          = 2025-11-16T18:11:18.132864
MEAN_MOTION    = 14.86515546
ECCENTRICITY   = .0019379
INCLINATION    = 82.5683
RA_OF_ASC_NODE = 247.0079
ARG_OF_PERICENTER = 319.8041
MEAN_ANOMALY   = 61.3293

EPHEMERIS_TYPE = 0
CLASSIFICATION_TYPE = U
NORAD_CAT_ID   = 13553
ELEMENT_SET_NO = 999
REV_AT_EPOCH   = 31215
BSTAR          = .1235E-3
MEAN_MOTION_DOT = .112E-4
MEAN_MOTION_DDOT = 0

CCSDS_OMM_VERS = 2.0
CREATION_DATE  = 
ORIGINATOR     = 

OBJECT_NAME    = SL-3 R/B
OBJECT_ID      = 1983-010B
CENTER_NAME    = EARTH
REF_FRAME      = TEME
TIME_SYSTEM    = UTC
MEAN_ELEMENT_THEORY = SGP/SGP4

EPOCH          = 2025-11-16T18:24:29.060064
MEAN_MOTION    = 15.42547444
ECCENTRICITY   = .0018273
INCLINATION    = 81.1022
RA_OF_ASC_NODE = 140.2995
ARG_OF_PERICENTER = 79.7115
MEAN_ANOMALY   = 280.6187

EPHEMERIS_TYPE = 0
CLASSIFICATION_TYPE = U
NORAD_CAT_ID   = 13819
ELEMENT_SET_NO = 999
REV_AT_EPOCH   = 34051
BSTAR          = .43403E-3
MEAN_MOTION_DOT = .19002E-3
MEAN_MOTION_DDOT = 0

CCSDS_OMM_VERS = 2.0
CREATION_DATE  = 
ORIGINATOR     = 

OBJECT_NAME    = SL-3 R/B
OBJECT_ID      = 1983-075B
CENTER_NAME    = EARTH
REF_FRAME      = TEME
TIME_SYSTEM    = UTC
MEAN_ELEMENT_THEORY = SGP/SGP4

EPOCH          = 2025-11-16T18:57:29.871648
MEAN_MOTION    = 15.35427679
ECCENTRICITY   = .0020966
INCLINATION    = 97.6100
RA_OF_ASC_NODE = 316.4178
ARG_OF_PERICENTER = 273.7662
MEAN_ANOMALY   = 86.1184

EPHEMERIS_TYPE = 0
CLASSIFICATION_TYPE = U
NORAD_CAT_ID   = 14208
ELEMENT_SET_NO = 999
REV_AT_EPOCH   = 31281
BSTAR          = .46707E-3
MEAN_MOTION_DOT = .1612E-3
MEAN_MOTION_DDOT = 0

CCSDS_OMM_VERS = 2.0
CREATION_DATE  = 
ORIGINATOR     = 

OBJECT_NAME    = COSMOS 1536
OBJECT_ID      = 1984-013A
CENTER_NAME    = EARTH
REF_FRAME      = TEME
TIME_SYSTEM    = UTC
MEAN_ELEMENT_THEORY = SGP/SGP4

EPOCH          = 2025-11-16T17:03:43.240032
MEAN_MOTION    = 15.22116609
ECCENTRICITY   = .0014201
INCLINATION    = 82.5475
RA_OF_ASC_NODE = 219.9657
ARG_OF_PERICENTER = 327.1713
MEAN_ANOMALY   = 32.8639

EPHEMERIS_TYPE = 0
CLASSIFICATION_TYPE = U
NORAD_CAT_ID   = 14699
ELEMENT_SET_NO = 999
REV_AT_EPOCH   = 25542
BSTAR          = .46495E-3
MEAN_MOTION_DOT = .10713E-3
MEAN_MOTION_DDOT = 0

CCSDS_OMM_VERS = 2.0
CREATION_DATE  = 
ORIGINATOR     = 

OBJECT_NAME    = SL-14 R/B
OBJECT_ID      = 1984-027B
CENTER_NAME    = EARTH
REF_FRAME      = TEME
TIME_SYSTEM    = UTC
MEAN_ELEMENT_THEORY = SGP/SGP4

EPOCH          = 2025-11-16T13:28:01.534368
MEAN_MOTION    = 14.85835967
ECCENTRICITY   = .00177205
INCLINATION    = 82.5423
RA_OF_ASC_NODE = 351.1078
ARG_OF_PERICENTER = 353.3579
MEAN_ANOMALY   = 6.7400

EPHEMERIS_TYPE = 0
CLASSIFICATION_TYPE = U
NORAD_CAT_ID   = 14820
ELEMENT_SET_NO = 999
REV_AT_EPOCH   = 23083
BSTAR          = .97887367E-4
MEAN_MOTION_DOT = .878E-5
MEAN_MOTION_DDOT = 0

CCSDS_OMM_VERS = 2.0
CREATION_DATE  = 
ORIGINATOR     = 

OBJECT_NAME    = SL-8 R/B
OBJECT_ID      = 1985-006B
CENTER_NAME    = EARTH
REF_FRAME      = TEME
TIME_SYSTEM    = UTC
MEAN_ELEMENT_THEORY = SGP/SGP4

EPOCH          = 2025-11-16T17:13:25.868064
MEAN_MOTION    = 14.37698422
ECCENTRICITY   = .0017699
INCLINATION    = 74.0440
RA_OF_ASC_NODE = 109.0091
ARG_OF_PERICENTER = 49.4338
MEAN_ANOMALY   = 322.0125

EPHEMERIS_TYPE = 0
CLASSIFICATION_TYPE = U
NORAD_CAT_ID   = 15483
ELEMENT_SET_NO = 999
REV_AT_EPOCH   = 13779
BSTAR          = .18292E-3
MEAN_MOTION_DOT = .525E-5
MEAN_MOTION_DDOT = 0

CCSDS_OMM_VERS = 2.0
CREATION_DATE  = 
ORIGINATOR     = 

OBJECT_NAME    = SL-12 R/B(2)
OBJECT_ID      = 1985-042D
CENTER_NAME    = EARTH
REF_FRAME      = TEME
TIME_SYSTEM    = UTC
MEAN_ELEMENT_THEORY = SGP/SGP4

EPOCH          = 2025-11-16T10:40:25.961952
MEAN_MOTION    = 14.21940030
ECCENTRICITY   = .00374038
INCLINATION    = 71.1081
RA_OF_ASC_NODE = 326.9726
ARG_OF_PERICENTER = 299.9534
MEAN_ANOMALY   = 166.2381

EPHEMERIS_TYPE = 0
CLASSIFICATION_TYPE = U
NORAD_CAT_ID   = 15772
ELEMENT_SET_NO = 999
REV_AT_EPOCH   = 9829
BSTAR          = .16542083E-3
MEAN_MOTION_DOT = .32E-5
MEAN_MOTION_DDOT = 0

CCSDS_OMM_VERS = 2.0
CREATION_DATE  = 
ORIGINATOR     = 

OBJECT_NAME    = SL-14 R/B
OBJECT_ID      = 1985-069B
CENTER_NAME    = EARTH
REF_FRAME      = TEME
TIME_SYSTEM    = UTC
MEAN_ELEMENT_THEORY = SGP/SGP4

EPOCH          = 2025-11-16T10:41:33.512064
MEAN_MOTION    = 14.86279606
ECCENTRICITY   = .00181559
INCLINATION    = 82.5244
RA_OF_ASC_NODE = 131.4235
ARG_OF_PERICENTER = 203.5323
MEAN_ANOMALY   = 156.5065

EPHEMERIS_TYPE = 0
CLASSIFICATION_TYPE = U
NORAD_CAT_ID   = 15945
ELEMENT_SET_NO = 999
REV_AT_EPOCH   = 15601
BSTAR          = .11982057E-3
MEAN_MOTION_DOT = .1081E-4
MEAN_MOTION_DDOT = 0

CCSDS_OMM_VERS = 2.0
CREATION_DATE  = 
ORIGINATOR     = 

OBJECT_NAME    = SL-16 R/B
OBJECT_ID      = 1985-097B
CENTER_NAME    = EARTH
REF_FRAME      = TEME
TIME_SYSTEM    = UTC
MEAN_ELEMENT_THEORY = SGP/SGP4

EPOCH          = 2025-11-16T14:26:18.875904
MEAN_MOTION    = 14.16577313
ECCENTRICITY   = .0005417
INCLINATION    = 71.0045
RA_OF_ASC_NODE = 18.6319
ARG_OF_PERICENTER = 60.0538
MEAN_ANOMALY   = 101.6984

EPHEMERIS_TYPE = 0
CLASSIFICATION_TYPE = U
NORAD_CAT_ID   = 16182
ELEMENT_SET_NO = 999
REV_AT_EPOCH   = 7121
BSTAR          = .14069613E-3
MEAN_MOTION_DOT = .233E-5
MEAN_MOTION_DDOT = 0

CCSDS_OMM_VERS = 2.0
CREATION_DATE  = 
ORIGINATOR     = 

OBJECT_NAME    = SL-14 R/B
OBJECT_ID      = 1986-006B
CENTER_NAME    = EARTH
REF_FRAME      = TEME
TIME_SYSTEM    = UTC
MEAN_ELEMENT_THEORY = SGP/SGP4

EPOCH          = 2025-11-16T14:01:52.666176
MEAN_MOTION    = 14.86620852
ECCENTRICITY   = .00752785
INCLINATION    = 82.5285
RA_OF_ASC_NODE = 6.1607
ARG_OF_PERICENTER = 287.9987
MEAN_ANOMALY   = 71.3035

EPHEMERIS_TYPE = 0
CLASSIFICATION_TYPE = U
NORAD_CAT_ID   = 16496
ELEMENT_SET_NO = 999
REV_AT_EPOCH   = 13240
BSTAR          = .1280336E-3
MEAN_MOTION_DOT = .122E-4
MEAN_MOTION_DDOT = 0

